start=new Date('2023-01-04T00:00:00.000Z').valueOf();
sats=[{"MEAN_MOTION":"15.08839742","GP_ID":"222084207","REV_AT_EPOCH":"4939","PERIAPSIS":"537.882","MEAN_ANOMALY":"308.7686","DECAY_DATE":null,"INCLINATION":"53.2143","OBJECT_ID":"2022-016T","OBJECT_TYPE":"PAYLOAD","TIME_SYSTEM":"UTC","TLE_LINE1":"1 51731U 22016T   23003.62189860  .00003197  00000-0  21892-3 0  9991","BSTAR":"0.00021892000000","MEAN_ELEMENT_THEORY":"SGP4","NORAD_CAT_ID":"51731","SITE":"AFETR","SEMIMAJOR_AXIS":"6917.881","FILE":"3730649","CENTER_NAME":"EARTH","ARG_OF_PERICENTER":"51.3547","MEAN_MOTION_DDOT":"0.0000000000000","RCS_SIZE":"LARGE","APOAPSIS":"541.611","OBJECT_NAME":"STARLINK-3514","EPHEMERIS_TYPE":"0","MEAN_MOTION_DOT":"0.00003197","ECCENTRICITY":"0.00026950","COUNTRY_CODE":"US","LAUNCH_DATE":"2022-02-21","CLASSIFICATION_TYPE":"U","TLE_LINE2":"2 51731  53.2143 131.3618 0002695  51.3547 308.7686 15.08839742 49397","PERIOD":"95.438","RA_OF_ASC_NODE":"131.3618","EPOCH":"2023-01-03T14:55:32.039040","REF_FRAME":"TEME","ELEMENT_SET_NO":"999"},{"COUNTRY_CODE":"US","ECCENTRICITY":"0.00030280","OBJECT_NAME":"STARLINK-3518","MEAN_MOTION_DOT":"0.00002566","EPHEMERIS_TYPE":"0","APOAPSIS":"541.871","RCS_SIZE":"LARGE","ARG_OF_PERICENTER":"40.4318","MEAN_MOTION_DDOT":"0.0000000000000","FILE":"3730926","CENTER_NAME":"EARTH","REF_FRAME":"TEME","ELEMENT_SET_NO":"999","EPOCH":"2023-01-03T14:34:20.637120","RA_OF_ASC_NODE":"131.4351","PERIOD":"95.438","TLE_LINE2":"2 51732  53.2145 131.4351 0003028  40.4318 319.6898 15.08829921 49429","LAUNCH_DATE":"2022-02-21","CLASSIFICATION_TYPE":"U","OBJECT_TYPE":"PAYLOAD","OBJECT_ID":"2022-016U","DECAY_DATE":null,"INCLINATION":"53.2145","MEAN_ANOMALY":"319.6898","GP_ID":"222112982","REV_AT_EPOCH":"4942","PERIAPSIS":"537.681","MEAN_MOTION":"15.08829921","SEMIMAJOR_AXIS":"6917.911","NORAD_CAT_ID":"51732","SITE":"AFETR","MEAN_ELEMENT_THEORY":"SGP4","BSTAR":"0.00017932000000","TIME_SYSTEM":"UTC","TLE_LINE1":"1 51732U 22016U   23003.60718330  .00002566  00000-0  17932-3 0  9999"},{"RA_OF_ASC_NODE":"131.3950","EPOCH":"2023-01-03T14:44:56.387328","ELEMENT_SET_NO":"999","REF_FRAME":"TEME","CLASSIFICATION_TYPE":"U","LAUNCH_DATE":"2022-02-21","PERIOD":"95.438","TLE_LINE2":"2 51733  53.2164 131.3950 0002867  44.3762 315.7460 15.08829390 49344","MEAN_MOTION_DOT":"0.00001398","EPHEMERIS_TYPE":"0","OBJECT_NAME":"STARLINK-3525","APOAPSIS":"541.761","COUNTRY_CODE":"US","ECCENTRICITY":"0.00028670","MEAN_MOTION_DDOT":"0.0000000000000","ARG_OF_PERICENTER":"44.3762","FILE":"3730649","CENTER_NAME":"EARTH","RCS_SIZE":"LARGE","SITE":"AFETR","NORAD_CAT_ID":"51733","SEMIMAJOR_AXIS":"6917.913","TLE_LINE1":"1 51733U 22016V   23003.61454152  .00001398  00000-0  10595-3 0  9990","TIME_SYSTEM":"UTC","MEAN_ELEMENT_THEORY":"SGP4","BSTAR":"0.00010595000000","DECAY_DATE":null,"INCLINATION":"53.2164","OBJECT_TYPE":"PAYLOAD","OBJECT_ID":"2022-016V","GP_ID":"222084415","PERIAPSIS":"537.794","REV_AT_EPOCH":"4934","MEAN_MOTION":"15.08829390","MEAN_ANOMALY":"315.7460"},{"MEAN_MOTION_DDOT":"0.0000000000000","ARG_OF_PERICENTER":"42.0288","CENTER_NAME":"EARTH","FILE":"3730926","RCS_SIZE":"LARGE","OBJECT_NAME":"STARLINK-3450","MEAN_MOTION_DOT":"0.00002640","EPHEMERIS_TYPE":"0","APOAPSIS":"542.103","COUNTRY_CODE":"US","ECCENTRICITY":"0.00033690","CLASSIFICATION_TYPE":"U","LAUNCH_DATE":"2022-02-21","PERIOD":"95.438","TLE_LINE2":"2 51734  53.2174 132.3747 0003369  42.0288 318.0962 15.08831099 48247","EPOCH":"2023-01-03T09:32:17.414592","RA_OF_ASC_NODE":"132.3747","REF_FRAME":"TEME","ELEMENT_SET_NO":"999","GP_ID":"222114482","PERIAPSIS":"537.442","REV_AT_EPOCH":"4824","MEAN_MOTION":"15.08831099","MEAN_ANOMALY":"318.0962","INCLINATION":"53.2174","DECAY_DATE":null,"OBJECT_TYPE":"PAYLOAD","OBJECT_ID":"2022-016W","TIME_SYSTEM":"UTC","TLE_LINE1":"1 51734U 22016W   23003.39742378  .00002640  00000-0  18395-3 0  9993","MEAN_ELEMENT_THEORY":"SGP4","BSTAR":"0.00018395000000","NORAD_CAT_ID":"51734","SITE":"AFETR","SEMIMAJOR_AXIS":"6917.908"},{"SEMIMAJOR_AXIS":"6917.900","SITE":"AFETR","NORAD_CAT_ID":"51735","MEAN_ELEMENT_THEORY":"SGP4","BSTAR":"0.00021434000000","TLE_LINE1":"1 51735U 22016X   23003.33853700  .00003124  00000-0  21434-3 0  9996","TIME_SYSTEM":"UTC","OBJECT_TYPE":"PAYLOAD","OBJECT_ID":"2022-016X","DECAY_DATE":null,"INCLINATION":"53.2146","MEAN_ANOMALY":"322.1663","REV_AT_EPOCH":"4824","GP_ID":"222114712","PERIAPSIS":"537.971","MEAN_MOTION":"15.08833494","ELEMENT_SET_NO":"999","REF_FRAME":"TEME","EPOCH":"2023-01-03T08:07:29.596800","RA_OF_ASC_NODE":"132.6335","PERIOD":"95.438","TLE_LINE2":"2 51735  53.2146 132.6335 0002593  37.9511 322.1663 15.08833494 48248","LAUNCH_DATE":"2022-02-21","CLASSIFICATION_TYPE":"U","COUNTRY_CODE":"US","ECCENTRICITY":"0.00025930","EPHEMERIS_TYPE":"0","MEAN_MOTION_DOT":"0.00003124","OBJECT_NAME":"STARLINK-3517","APOAPSIS":"541.559","RCS_SIZE":"LARGE","MEAN_MOTION_DDOT":"0.0000000000000","ARG_OF_PERICENTER":"37.9511","FILE":"3730926","CENTER_NAME":"EARTH"},{"PERIOD":"95.437","TLE_LINE2":"2 51736  53.2164 130.6101 0003016  37.3892 322.7310 15.08841567 49432","CLASSIFICATION_TYPE":"U","LAUNCH_DATE":"2022-02-21","REF_FRAME":"TEME","ELEMENT_SET_NO":"999","RA_OF_ASC_NODE":"130.6101","EPOCH":"2023-01-03T18:53:59.671680","RCS_SIZE":"LARGE","MEAN_MOTION_DDOT":"0.0000000000000","ARG_OF_PERICENTER":"37.3892","FILE":"3730912","CENTER_NAME":"EARTH","COUNTRY_CODE":"US","ECCENTRICITY":"0.00030160","OBJECT_NAME":"STARLINK-3447","EPHEMERIS_TYPE":"0","MEAN_MOTION_DOT":"0.00003529","APOAPSIS":"541.827","MEAN_ELEMENT_THEORY":"SGP4","BSTAR":"0.00023969000000","TIME_SYSTEM":"UTC","TLE_LINE1":"1 51736U 22016Y   23003.78749620  .00003529  00000-0  23969-3 0  9995","SEMIMAJOR_AXIS":"6917.876","NORAD_CAT_ID":"51736","SITE":"AFETR","MEAN_ANOMALY":"322.7310","PERIAPSIS":"537.654","GP_ID":"222089752","REV_AT_EPOCH":"4943","MEAN_MOTION":"15.08841567","OBJECT_TYPE":"PAYLOAD","OBJECT_ID":"2022-016Y","INCLINATION":"53.2164","DECAY_DATE":null},{"MEAN_ANOMALY":"315.6273","REV_AT_EPOCH":"4825","GP_ID":"222113732","PERIAPSIS":"537.916","MEAN_MOTION":"15.08829365","OBJECT_TYPE":"PAYLOAD","OBJECT_ID":"2022-016Z","INCLINATION":"53.2174","DECAY_DATE":null,"MEAN_ELEMENT_THEORY":"SGP4","BSTAR":"0.00020902000000","TIME_SYSTEM":"UTC","TLE_LINE1":"1 51737U 22016Z   23003.46734194  .00003039  00000-0  20902-3 0  9991","SEMIMAJOR_AXIS":"6917.913","NORAD_CAT_ID":"51737","SITE":"AFETR","RCS_SIZE":"LARGE","MEAN_MOTION_DDOT":"0.0000000000000","ARG_OF_PERICENTER":"44.4935","FILE":"3730926","CENTER_NAME":"EARTH","COUNTRY_CODE":"US","ECCENTRICITY":"0.00026920","OBJECT_NAME":"STARLINK-3509","MEAN_MOTION_DOT":"0.00003039","EPHEMERIS_TYPE":"0","APOAPSIS":"541.640","PERIOD":"95.438","TLE_LINE2":"2 51737  53.2174 132.0527 0002692  44.4935 315.6273 15.08829365 48258","LAUNCH_DATE":"2022-02-21","CLASSIFICATION_TYPE":"U","REF_FRAME":"TEME","ELEMENT_SET_NO":"999","RA_OF_ASC_NODE":"132.0527","EPOCH":"2023-01-03T11:12:58.343616"},{"LAUNCH_DATE":"2022-02-21","CLASSIFICATION_TYPE":"U","PERIOD":"95.438","TLE_LINE2":"2 51738  53.2156 130.6561 0003071  41.6757 318.4468 15.08840522 49418","RA_OF_ASC_NODE":"130.6561","EPOCH":"2023-01-03T18:43:24.069216","ELEMENT_SET_NO":"999","REF_FRAME":"TEME","ARG_OF_PERICENTER":"41.6757","MEAN_MOTION_DDOT":"0.0000000000000","FILE":"3730895","CENTER_NAME":"EARTH","RCS_SIZE":"LARGE","MEAN_MOTION_DOT":"0.00003045","EPHEMERIS_TYPE":"0","OBJECT_NAME":"STARLINK-3515","APOAPSIS":"541.868","COUNTRY_CODE":"US","ECCENTRICITY":"0.00030710","TLE_LINE1":"1 51738U 22016AA  23003.78013969  .00003045  00000-0  20936-3 0  9991","TIME_SYSTEM":"UTC","MEAN_ELEMENT_THEORY":"SGP4","BSTAR":"0.00020936000000","SITE":"AFETR","NORAD_CAT_ID":"51738","SEMIMAJOR_AXIS":"6917.879","GP_ID":"222089423","PERIAPSIS":"537.619","REV_AT_EPOCH":"4941","MEAN_MOTION":"15.08840522","MEAN_ANOMALY":"318.4468","DECAY_DATE":null,"INCLINATION":"53.2156","OBJECT_TYPE":"PAYLOAD","OBJECT_ID":"2022-016AA"},{"BSTAR":"0.00012450000000","MEAN_ELEMENT_THEORY":"SGP4","TLE_LINE1":"1 51739U 22016AB  23003.72493976  .00001693  00000-0  12450-3 0  9995","TIME_SYSTEM":"UTC","SEMIMAJOR_AXIS":"6917.907","SITE":"AFETR","NORAD_CAT_ID":"51739","MEAN_ANOMALY":"320.2019","MEAN_MOTION":"15.08831253","PERIAPSIS":"537.453","GP_ID":"222089227","REV_AT_EPOCH":"4941","OBJECT_ID":"2022-016AB","OBJECT_TYPE":"PAYLOAD","INCLINATION":"53.2182","DECAY_DATE":null,"TLE_LINE2":"2 51739  53.2182 130.9064 0003353  39.9220 320.2019 15.08831253 49411","PERIOD":"95.438","LAUNCH_DATE":"2022-02-21","CLASSIFICATION_TYPE":"U","ELEMENT_SET_NO":"999","REF_FRAME":"TEME","EPOCH":"2023-01-03T17:23:54.795264","RA_OF_ASC_NODE":"130.9064","RCS_SIZE":"LARGE","CENTER_NAME":"EARTH","FILE":"3730895","MEAN_MOTION_DDOT":"0.0000000000000","ARG_OF_PERICENTER":"39.9220","ECCENTRICITY":"0.00033530","COUNTRY_CODE":"US","APOAPSIS":"542.092","MEAN_MOTION_DOT":"0.00001693","EPHEMERIS_TYPE":"0","OBJECT_NAME":"STARLINK-3516"},{"BSTAR":"0.00024055000000","MEAN_ELEMENT_THEORY":"SGP4","TIME_SYSTEM":"UTC","TLE_LINE1":"1 51740U 22016AC  23003.64031826  .00003541  00000-0  24055-3 0  9998","SEMIMAJOR_AXIS":"6917.917","NORAD_CAT_ID":"51740","SITE":"AFETR","MEAN_ANOMALY":"268.6504","MEAN_MOTION":"15.08828172","GP_ID":"222084429","REV_AT_EPOCH":"4934","PERIAPSIS":"538.073","OBJECT_ID":"2022-016AC","OBJECT_TYPE":"PAYLOAD","INCLINATION":"53.2174","DECAY_DATE":null,"TLE_LINE2":"2 51740  53.2174 131.2761 0002470  91.4771 268.6504 15.08828172 49347","PERIOD":"95.438","CLASSIFICATION_TYPE":"U","LAUNCH_DATE":"2022-02-21","REF_FRAME":"TEME","ELEMENT_SET_NO":"999","EPOCH":"2023-01-03T15:22:03.497664","RA_OF_ASC_NODE":"131.2761","RCS_SIZE":"LARGE","FILE":"3730643","CENTER_NAME":"EARTH","MEAN_MOTION_DDOT":"0.0000000000000","ARG_OF_PERICENTER":"91.4771","ECCENTRICITY":"0.00024700","COUNTRY_CODE":"US","APOAPSIS":"541.490","OBJECT_NAME":"STARLINK-3500","EPHEMERIS_TYPE":"0","MEAN_MOTION_DOT":"0.00003541"}];
